[
    {
        "CCSDS_OMM_VERS": "3.0",
        "COMMENT": "GENERATED VIA SPACE-TRACK.ORG API",
        "CREATION_DATE": "2025-05-02T17:35:09",
        "ORIGINATOR": "18 SPCS",
        "OBJECT_NAME": "GALILEO 24 (2C0)",
        "OBJECT_ID": "2018-060D",
        "CENTER_NAME": "EARTH",
        "REF_FRAME": "TEME",
        "TIME_SYSTEM": "UTC",
        "MEAN_ELEMENT_THEORY": "SGP4",
        "EPOCH": "2025-05-01T22:38:57.506496",
        "MEAN_MOTION": "1.70475442",
        "ECCENTRICITY": "0.00034280",
        "INCLINATION": "57.2782",
        "RA_OF_ASC_NODE": "352.8829",
        "ARG_OF_PERICENTER": "321.8889",
        "MEAN_ANOMALY": "38.1279",
        "EPHEMERIS_TYPE": "0",
        "CLASSIFICATION_TYPE": "U",
        "NORAD_CAT_ID": "43567",
        "ELEMENT_SET_NO": "999",
        "REV_AT_EPOCH": "4216",
        "BSTAR": "0.00000000000000",
        "MEAN_MOTION_DOT": "-0.00000098",
        "MEAN_MOTION_DDOT": "0.0000000000000",
        "SEMIMAJOR_AXIS": "29600.153",
        "PERIOD": "844.696",
        "APOAPSIS": "23232.165",
        "PERIAPSIS": "23211.871",
        "OBJECT_TYPE": "PAYLOAD",
        "RCS_SIZE": "LARGE",
        "COUNTRY_CODE": "ESA",
        "LAUNCH_DATE": "2018-07-25",
        "SITE": "FRGUI",
        "DECAY_DATE": null,
        "FILE": "4716995",
        "GP_ID": "286680144",
        "TLE_LINE0": "0 GALILEO 24 (2C0)",
        "TLE_LINE1": "1 43567U 18060D   25121.94372114 -.00000098  00000-0  00000-0 0  9990",
        "TLE_LINE2": "2 43567  57.2782 352.8829 0003428 321.8889  38.1279  1.70475442 42168"
    }
]